#aV2020  4 27  0  0  0.00000000     288 DD+AD WGS84 FIT  NGA
## 2103  86400.00000000   300.00000000 58966 0.0000000000000
+   32     1  2  3  4  5  6  7  8  9 10 11 12 13 14 15 16 17
+         18 19 20 21 22 23 24 25 26 27 28 29 30 31 32  0  0
+          0  0  0  0  0  0  0  0  0  0  0  0  0  0  0  0  0
+          0  0  0  0  0  0  0  0  0  0  0  0  0  0  0  0  0
+          0  0  0  0  0  0  0  0  0  0  0  0  0  0  0  0  0
++         2  2  2  2  2  2  2  2  2  2  2  2  2  2  2  2  2
++         2  2  2  2  2  2  2  2  2  2  2  2  2  2  2  0  0
++         0  0  0  0  0  0  0  0  0  0  0  0  0  0  0  0  0
++         0  0  0  0  0  0  0  0  0  0  0  0  0  0  0  0  0
++         0  0  0  0  0  0  0  0  0  0  0  0  0  0  0  0  0
%c cc cc ccc ccc cccc cccc cccc cccc ccccc ccccc ccccc ccccc
%c cc cc ccc ccc cccc cccc cccc cccc ccccc ccccc ccccc ccccc
%f  0.0000000  0.000000000  0.00000000000  0.000000000000000
%f  0.0000000  0.000000000  0.00000000000  0.000000000000000
%i    0    0    0    0      0      0      0      0         0
%i    0    0    0    0      0      0      0      0         0
/*      NGA, ST. LOUIS,MO.                                  
/*   EPHEMERIS COMPUTED FROM 2 DAYS OF DATA                 
/*   EPOCHA v5 SMOOTHER                                     
/*   G1762 IERS2010 SATAF SATAPC                            
*  2020  4 27  5 50  0.00000000
P  1 -14659.271452  21109.965677   5732.268601   -367.932050                    
V  1   1164.503327  -7911.657090  31278.245658     -0.089166                    
P  2  16228.244779  -2305.419651 -20250.240366   -446.335697                    
V  2  -9142.957412  25630.208837  -9995.682879     -0.063424                    
P  3 -16562.340363  12649.061488 -16461.200690   -157.822685                    
V  3 -20905.093515   -283.495555  20987.609866     -0.114385                    
P  4  -6047.775414  16486.401825 -19906.283180    -81.664315                    
V  4 -14536.774471 -20756.295576 -12794.485022     -0.050901                    
P  5  26574.010526  -1492.551586  -1820.016413    -11.594428                    
V  5  -1822.882146   3123.109691 -31316.687244     -0.007066                    
P  6  11678.419399   9506.172721 -21817.526471   -260.713043                    
V  6 -12338.436660  24900.154463   4277.967420     -0.073584                    
P  7  -3085.445355  23831.131940  11052.423384   -267.939320                    
V  7  -8739.636118  11040.534714 -27457.495875     -0.086139                    
P  8 -14258.256669   5620.051030  21731.081267    -32.027907                    
V  8 -15622.454448 -22632.360212  -4150.121439     -0.013141                    
P  9   4329.874757  22600.990804 -13297.738309   -205.984070                    
V  9 -11664.984955 -12372.181824 -24934.372703     -0.075550                    
P 10 -14526.969675 -12012.172716  18891.235430   -323.110505                    
V 10  23550.719664  -3019.558664  16036.494970     -0.118706                    
P 11 -12861.900168  15520.249104  16951.087415   -293.638684                    
V 11  -2809.186077 -22487.897323  17638.463428      0.107376                    
P 12  18370.546471 -10818.884631 -15972.322345    124.581724                    
V 12  19880.450836   1520.122596  22321.123823     -0.043548                    
P 13  17107.358540   3360.663404  19944.911830      5.394583                    
V 13  10653.838942  23234.310105 -12888.668602      0.030178                    
P 14 -17798.698847 -16741.271180 -10291.214453    -16.892712                    
V 14  -4561.571586 -12953.665502  27840.362666      0.025179                    
P 15  13929.528025  -7804.815774  20941.932315   -235.178625                    
V 15  17477.995907  21124.041775  -3320.110503      0.026073                    
P 16 -26800.879211   -631.745228   -337.581462   -151.365066                    
V 16    187.877154  -1867.220250 -31843.782876     -0.044507                    
P 17  14364.215171  22305.652955  -1280.542460    255.441757                    
V 17   -664.186129   2885.708110  32180.521790      0.061271                    
P 18   5813.576698 -24431.046108   8623.062999    170.570805                    
V 18   7252.186850  -8589.855477 -29236.539601      0.129522                    
P 19  17162.957340  17826.338243  -9964.716661   -166.563895                    
V 19   4173.929152  11594.225381  28784.428290      0.051152                    
P 20  -2580.616701 -15563.394246  21283.300352    527.771700                    
V 20  26787.115850  -5405.029022   -916.368854     -0.000581                    
P 21   1152.003796 -24468.329016  11381.852608     -8.876851                    
V 21   7004.342848 -11413.692979 -26860.344325      0.048931                    
P 22 -22962.855909  10014.584542  -8393.810494   -783.912644                    
V 22 -11484.358201  -1846.553519  28601.015750      0.008798                    
P 23   1607.703616  21247.446014 -15248.945474   -118.865030                    
V 23 -13970.422398 -14872.622700 -22062.579410      0.030048                    
P 24  14552.828956 -20524.086256   7713.322458    -12.264333                    
V 24   -477.255953  10819.092852  29316.723043     -0.005022                    
P 25   7565.311958 -14955.651895 -20779.204390     -0.328180                    
V 25  25898.090504   -923.479007  10474.172562      0.027266                    
P 26 -23573.346112  -5563.253098 -11186.283674    195.397597                    
V 26  13740.550677  -4107.796531 -26776.985005      0.072912                    
P 27 -18685.340274  -5992.108797  17921.336496   -278.074982                    
V 27 -11916.543947 -19545.702777 -18486.799425     -0.103590                    
P 28  14569.867323  12840.300968  18637.415225    722.147447                    
V 28 -22505.445520    755.273352  17771.553442     -0.031059                    
P 29   -638.602634 -21536.503731 -15557.540811    -90.758548                    
V 29  11144.314138  16233.932471 -23009.824216     -0.089753                    
P 30   5594.824629  18274.642362  18393.288209   -207.461980                    
V 30 -12596.265023  19847.899632 -16129.946040     -0.083902                    
P 31 -13013.817159  -8071.995406 -21722.396593    -38.661942                    
V 31  12928.205355 -24297.929503   1733.547859     -0.024342                    
P 32 -16378.579735 -20877.422765  -2287.017334    268.487414                    
V 32    614.137417  -4057.822526  31395.735351      0.080827                    
EOF
